H1 CPF 01  gfz 2022 04 29 12  6192 tandemx   
H2 1003001  6202 36605    2022 04 29 12 59 42 2022 05 04 00 00 42   120 1 1  0 0 0
H9
10 0 59702  15822.000000  0   -6019870.587  -2401616.532   2325569.218
10 0 59702  15942.000000  0   -5747900.669  -2100552.078   3153602.635
10 0 59702  16062.000000  0   -5369872.319  -1768440.890   3926091.935
10 0 59702  16182.000000  0   -4891939.528  -1412899.865   4629447.309
10 0 59702  16302.000000  0   -4322143.329  -1041830.988   5251309.714
10 0 59702  16422.000000  0   -3670268.874   -663249.173   5780766.328
10 0 59702  16542.000000  0   -2947669.540   -285111.138   6208539.856
10 0 59702  16662.000000  0   -2167060.951     84850.661   6527146.338
10 0 59702  16782.000000  0   -1342290.850    439283.690   6731019.135
10 0 59702  16902.000000  0    -488090.590    771359.213   6816600.202
10 0 59702  17022.000000  0     380188.533   1074902.596   6782397.900
10 0 59702  17142.000000  0    1246850.323   1344507.545   6629011.258
10 0 59702  17262.000000  0    2096136.650   1575632.796   6359120.017
10 0 59702  17382.000000  0    2912513.155   1764678.709   5977440.597
10 0 59702  17502.000000  0    3680954.803   1909043.524   5490649.384
10 0 59702  17622.000000  0    4387225.625   2007157.988   4907271.090
10 0 59702  17742.000000  0    5018146.554   2058498.751   4237536.206
10 0 59702  17862.000000  0    5561850.721   2063580.006   3493207.611
10 0 59702  17982.000000  0    6008016.196   2023921.163   2687373.225
10 0 59702  18102.000000  0    6348069.320   1941993.622   1834216.189
10 0 59702  18222.000000  0    6575359.157   1821146.707    948761.381
10 0 59702  18342.000000  0    6685292.652   1665513.681     46603.687
10 0 59702  18462.000000  0    6675429.909   1479902.254   -856375.131
10 0 59702  18582.000000  0    6545534.714   1269670.368  -1744295.248
10 0 59702  18702.000000  0    6297582.333   1040590.263  -2601564.743
10 0 59702  18822.000000  0    5935722.753    798705.756  -3413160.162
10 0 59702  18942.000000  0    5466200.121    550186.853  -4164892.947
10 0 59702  19062.000000  0    4897231.966    301184.311  -4843657.092
10 0 59702  19182.000000  0    4238852.294     57687.976  -5437652.059
10 0 59702  19302.000000  0    3502724.314   -174607.159  -5936579.308
10 0 59702  19422.000000  0    2701926.064   -390425.034  -6331811.542
10 0 59702  19542.000000  0    1850712.355   -585020.569  -6616530.247
10 0 59702  19662.000000  0     964261.166   -754277.607  -6785831.760
10 0 59702  19782.000000  0      58405.598   -894791.325  -6836803.924
10 0 59702  19902.000000  0    -850643.975  -1003932.995  -6768569.564
10 0 59702  20022.000000  0   -1746582.513  -1079897.615  -6582300.254
10 0 59702  20142.000000  0   -2613296.551  -1121733.068  -6281198.361
10 0 59702  20262.000000  0   -3435147.066  -1129350.652  -5870446.757
10 0 59702  20382.000000  0   -4197247.404  -1103517.298  -5357130.613
10 0 59702  20502.000000  0   -4885734.500  -1045828.927  -4750126.783
10 0 59702  20622.000000  0   -5488025.116   -958665.416  -4059961.554
10 0 59702  20742.000000  0   -5993053.884   -845128.033  -3298638.879
10 0 59702  20862.000000  0   -6391488.235   -708959.771  -2479439.307
10 0 59702  20982.000000  0   -6675913.310   -554450.191  -1616692.366
10 0 59702  21102.000000  0   -6840983.330   -386327.564   -725526.593
10 0 59702  21222.000000  0   -6883533.883   -209638.672    178400.886
10 0 59702  21342.000000  0   -6802649.009    -29620.451   1079185.915
10 0 59702  21462.000000  0   -6599685.676    148432.368   1960964.934
10 0 59702  21582.000000  0   -6278251.851    319300.955   2808203.855
10 0 59702  21702.000000  0   -5844138.678    477974.250   3605980.585
10 0 59702  21822.000000  0   -5305208.271    619775.412   4340254.446
10 0 59702  21942.000000  0   -4671241.582    740479.219   4998116.509
10 0 59702  22062.000000  0   -3953750.302    836417.850   5568016.162
10 0 59702  22182.000000  0   -3165758.842    904572.868   6039961.175
10 0 59702  22302.000000  0   -2321559.700    942650.842   6405689.013
10 0 59702  22422.000000  0   -1436447.517    949142.122   6658806.479
10 0 59702  22542.000000  0    -526437.125    923361.356   6794894.515
10 0 59702  22662.000000  0     392026.942    865468.562   6811579.519
10 0 59702  22782.000000  0    1302366.693    776470.832   6708571.780
10 0 59702  22902.000000  0    2188168.670    658205.074   6487670.282
10 0 59702  23022.000000  0    3033478.986    513301.504   6152733.729
10 0 59702  23142.000000  0    3823092.174    345128.389   5709617.975
10 0 59702  23262.000000  0    4542827.919    157718.982   5166078.961
10 0 59702  23382.000000  0    5179790.796    -44318.447   4531642.910
10 0 59702  23502.000000  0    5722609.085   -255905.679   3817444.955
10 0 59702  23622.000000  0    6161648.054   -471611.726   3036037.224
10 0 59702  23742.000000  0    6489191.978   -685780.493   2201168.194
10 0 59702  23862.000000  0    6699587.919   -892666.053   1327537.205
10 0 59702  23982.000000  0    6789350.156  -1086572.295    430531.395
10 0 59702  24102.000000  0    6757223.670  -1261992.985   -474052.908
10 0 59702  24222.000000  0    6604200.218  -1413749.119  -1370298.458
10 0 59702  24342.000000  0    6333489.197  -1537119.198  -2242455.487
10 0 59702  24462.000000  0    5950443.838  -1627959.694  -3075225.841
10 0 59702  24582.000000  0    5462445.563  -1682812.691  -3854035.133
10 0 59702  24702.000000  0    4878750.548  -1698997.668  -4565288.246
10 0 59702  24822.000000  0    4210303.056  -1674685.760  -5196603.683
10 0 59702  24942.000000  0    3469519.484  -1608955.883  -5737022.922
10 0 59702  25062.000000  0    2670049.120  -1501830.912  -6177190.522
10 0 59702  25182.000000  0    1826518.839  -1354293.069  -6509504.843
10 0 59702  25302.000000  0     954264.287  -1168278.972  -6728238.999
10 0 59702  25422.000000  0      69053.250   -946655.650  -6829629.084
10 0 59702  25542.000000  0    -813194.304   -693176.811  -6811931.603
10 0 59702  25662.000000  0   -1676685.548   -412420.592  -6675450.281
10 0 59702  25782.000000  0   -2506031.392   -109708.683  -6422531.053
10 0 59702  25902.000000  0   -3286514.139    208991.037  -6057525.175
10 0 59702  26022.000000  0   -4004344.222    537177.665  -5586723.460
10 0 59702  26142.000000  0   -4646904.445    867944.666  -5018258.522
10 0 59702  26262.000000  0   -5202975.232   1194119.113  -4361976.591
10 0 59702  26382.000000  0   -5662939.156   1508412.480  -3629278.474
10 0 59702  26502.000000  0   -6018957.305   1803578.190  -2832929.913
10 0 59702  26622.000000  0   -6265114.767   2072572.273  -1986845.003
10 0 59702  26742.000000  0   -6397531.266   2308714.558  -1105845.360
10 0 59702  26862.000000  0   -6414433.261   2505846.095   -205398.212
10 0 59702  26982.000000  0   -6316184.134   2658478.005    698661.391
10 0 59702  27102.000000  0   -6105270.555   2761928.504   1590417.107
10 0 59702  27222.000000  0   -5786245.991   2812444.713   2454160.679
10 0 59702  27342.000000  0   -5365632.103   2807304.889   3274677.190
10 0 59702  27462.000000  0   -4851781.869   2744898.957   4037520.832
10 0 59702  27582.000000  0   -4254706.032   2624784.853   4729273.906
10 0 59702  27702.000000  0   -3585870.240   2447720.548   5337783.584
10 0 59702  27822.000000  0   -2857967.606   2215671.325   5852374.353
10 0 59702  27942.000000  0   -2084670.055   1931791.847   6264032.394
10 0 59702  28062.000000  0   -1280365.167   1600383.062   6565558.002
10 0 59702  28182.000000  0    -459884.484   1226825.558   6751684.268
10 0 59702  28302.000000  0     361770.217    817490.724   6819162.640
10 0 59702  28422.000000  0    1169700.495    379631.521   6766815.999
10 0 59702  28542.000000  0    1949380.171    -78745.529   6595557.724
10 0 59702  28662.000000  0    2686915.499   -549025.996   6308377.566
10 0 59702  28782.000000  0    3369293.410  -1022148.654   5910293.593
10 0 59702  28902.000000  0    3984614.271  -1488778.805   5408269.848
10 0 59702  29022.000000  0    4522303.579  -1939492.177   4811099.734
10 0 59702  29142.000000  0    4973299.353  -2364964.779   4129258.150
10 0 59702  29262.000000  0    5330213.575  -2756166.217   3374722.669
10 0 59702  29382.000000  0    5587461.607  -3104551.769   2560763.586
10 0 59702  29502.000000  0    5741355.014  -3402248.055   1701708.680
10 0 59702  29622.000000  0    5790158.110  -3642229.179    812687.677
10 0 59702  29742.000000  0    5734104.934  -3818477.645    -90641.608
10 0 59702  29862.000000  0    5575376.758  -3926125.985   -992376.920
10 0 59702  29982.000000  0    5318039.563  -3961575.318  -1876661.412
10 0 59702  30102.000000  0    4967943.571  -3922587.161  -2727970.314
10 0 59702  30222.000000  0    4532587.988  -3808348.051  -3531388.891
10 0 59702  30342.000000  0    4020954.862  -3619504.521  -4272876.341
10 0 59702  30462.000000  0    3443316.768  -3358168.534  -4939509.683
10 0 59702  30582.000000  0    2811023.730  -3027893.056  -5519703.734
10 0 59702  30702.000000  0    2136275.252  -2633620.310  -6003402.796
10 0 59702  30822.000000  0    1431883.372  -2181605.174  -6382244.489
10 0 59702  30942.000000  0     711028.962  -1679312.628  -6649695.075
10 0 59702  31062.000000  0     -12983.347  -1135291.905  -6801151.109
10 0 59702  31182.000000  0    -726966.282   -559031.684  -6834009.199
10 0 59702  31302.000000  0   -1418084.002     39202.226  -6747705.352
10 0 59702  31422.000000  0   -2074077.680    648545.347  -6543723.118
10 0 59702  31542.000000  0   -2683477.709   1257726.527  -6225570.542
10 0 59702  31662.000000  0   -3235800.339   1855271.078  -5798726.667
10 0 59702  31782.000000  0   -3721727.556   2429712.475  -5270558.146
10 0 59702  31902.000000  0   -4133267.988   2969810.470  -4650204.100
10 0 59702  32022.000000  0   -4463893.913   3464770.781  -3948428.103
10 0 59702  32142.000000  0   -4708650.657   3904462.048  -3177441.215
10 0 59702  32262.000000  0   -4864237.998   4279626.359  -2350697.303
99
